{
    "links": {
        "self": "http://www.neowsapp.com/rest/v1/neo/54095179?api_key=iIulBulltgU6a56xZRHN4H3l9WmuAYTsLGpBGhQ2"
    },
    "id": "54095179",
    "neo_reference_id": "54095179",
    "name": "(2020 WX4)",
    "designation": "2020 WX4",
    "nasa_jpl_url": "http://ssd.jpl.nasa.gov/sbdb.cgi?sstr=54095179",
    "absolute_magnitude_h": 21.846,
    "estimated_diameter": {
        "kilometers": {
            "estimated_diameter_min": 0.1135938912,
            "estimated_diameter_max": 0.2540036625
        },
        "meters": {
            "estimated_diameter_min": 113.5938911719,
            "estimated_diameter_max": 254.003662489
        },
        "miles": {
            "estimated_diameter_min": 0.0705839498,
            "estimated_diameter_max": 0.1578305098
        },
        "feet": {
            "estimated_diameter_min": 372.6833819124,
            "estimated_diameter_max": 833.3453760406
        }
    },
    "is_potentially_hazardous_asteroid": false,
    "close_approach_data": [
        {
            "close_approach_date": "2018-10-08",
            "close_approach_date_full": "2018-Oct-08 14:48",
            "epoch_date_close_approach": 1539010080000,
            "relative_velocity": {
                "kilometers_per_second": "7.2590300103",
                "kilometers_per_hour": "26132.5080370542",
                "miles_per_hour": "16237.724230024"
            },
            "miss_distance": {
                "astronomical": "0.3627957416",
                "lunar": "141.1275434824",
                "kilometers": "54273470.188430392",
                "miles": "33723970.5737957296"
            },
            "orbiting_body": "Juptr"
        },
        {
            "close_approach_date": "2020-11-16",
            "close_approach_date_full": "2020-Nov-16 10:16",
            "epoch_date_close_approach": 1605521760000,
            "relative_velocity": {
                "kilometers_per_second": "11.4358060316",
                "kilometers_per_hour": "41168.9017137442",
                "miles_per_hour": "25580.7545120762"
            },
            "miss_distance": {
                "astronomical": "0.3403436683",
                "lunar": "132.3936869687",
                "kilometers": "50914687.845666521",
                "miles": "31636920.0038231498"
            },
            "orbiting_body": "Earth"
        }
    ],
    "orbital_data": {
        "orbit_id": "3",
        "orbit_determination_date": "2020-12-08 05:24:02",
        "first_observation_date": "2020-11-23",
        "last_observation_date": "2020-12-08",
        "data_arc_in_days": 15,
        "observations_used": 33,
        "orbit_uncertainty": "7",
        "minimum_orbit_intersection": ".274154",
        "jupiter_tisserand_invariant": "2.700",
        "epoch_osculation": "2459000.5",
        "eccentricity": ".6367475703117679",
        "semi_major_axis": "3.401218866548875",
        "inclination": "20.15363849328833",
        "ascending_node_longitude": "68.35498021931429",
        "orbital_period": "2291.132975558785",
        "perihelion_distance": "1.235501017175334",
        "perihelion_argument": "333.8550074055952",
        "aphelion_distance": "5.566936715922417",
        "perihelion_time": "2459146.128133069061",
        "mean_anomaly": "337.1178153061693",
        "mean_motion": ".1571275014765127",
        "equinox": "J2000",
        "orbit_class": {
            "orbit_class_type": "AMO",
            "orbit_class_description": "Near-Earth asteroid orbits similar to that of 1221 Amor",
            "orbit_class_range": "1.017 AU < q (perihelion) < 1.3 AU"
        }
    },
    "is_sentry_object": false
}